SAR-LUPE 2              
1 31797U 07030A   26199.93278770  .00016643  00000+0  25768-3 0  9997
2 31797  98.1064 308.4185 0005042 207.4399 152.6587 15.54133390 61860
SAPPHIRE                
1 39088U 13009C   26199.88208306  .00000029  00000+0  25238-4 0  9997
2 39088  98.4278  18.5877 0011806 149.4519 210.7356 14.35248136701125
PRAETORIAN SDA_602      
1 65565U 25203A   26199.90563398  .00000066  00000+0  48407-4 0  9997
2 65565  81.3048 341.4017 0007128 109.1553 251.0376 13.83888338 43087
PRAETORIAN SDA_603      
1 65566U 25203B   26199.86142594  .00000129  00000+0  10561-3 0  9993
2 65566  81.3051 341.3646 0010761 105.7783 254.4561 13.83962151 43082
PRAETORIAN SDA_604      
1 65567U 25203C   26199.90140635  .00000063  00000+0  47062-4 0  9997
2 65567  81.3071 341.7888 0006634 112.8895 247.2962 13.83050488 43068
PRAETORIAN SDA_605      
1 65568U 25203D   26199.86069338  .00000067  00000+0  49774-4 0  9999
2 65568  81.3035 341.4648 0009365 104.5942 255.6254 13.83200483 43075
PRAETORIAN SDA_606      
1 65569U 25203E   26199.84586768  .00000035  00000+0  20654-4 0  9990
2 65569  81.3072 341.7180 0007241 107.8271 252.3676 13.83200193 43062
PRAETORIAN SDA_607      
1 65570U 25203F   26199.90706039  .00000135  00000+0  11132-3 0  9995
2 65570  81.3058 341.2776 0010086 105.3344 254.8927 13.83757731 43093
PRAETORIAN SDA_608      
1 65571U 25203G   26199.88942086  .00000053  00000+0  37255-4 0  9991
2 65571  81.3025 341.4561 0007129 111.6425 248.5491 13.83819750 43070
PRAETORIAN SDA_609      
1 65572U 25203H   26199.88535382  .00000131  00000+0  10675-3 0  9992
2 65572  81.3069 341.4369 0007952 106.2050 253.9982 13.84213026 43084
PRAETORIAN SDA_610      
1 65573U 25203J   26199.87209536  .00000077  00000+0  58817-4 0  9991
2 65573  81.3026 341.4369 0007866 111.1687 249.0311 13.83528647 43071
PRAETORIAN SDA_611      
1 65574U 25203K   26199.88158372  .00000235  00000+0  20346-3 0  9995
2 65574  81.3034 341.6119 0006767 115.6619 244.5237 13.83311149 43062
PRAETORIAN SDA_612      
1 65575U 25203L   26199.90389031  .00000141  00000+0  11384-3 0  9995
2 65575  81.3087 341.0997 0010477 106.0155 254.2157 13.85033079 43100
PRAETORIAN SDA_613      
1 65576U 25203M   26199.90078069  .00000061  00000+0  45506-4 0  9997
2 65576  81.3017 341.6159 0006820 106.6787 253.5118 13.82768076 43067
PRAETORIAN SDA_614      
1 65577U 25203N   26199.89905694  .00000044  00000+0  28816-4 0  9995
2 65577  81.3032 341.1901 0008267 104.5606 255.6469 13.84778825 43101
PRAETORIAN SDA_615      
1 65578U 25203P   26199.88374469  .00000158  00000+0  12998-3 0  9994
2 65578  81.3042 341.1881 0010115 105.0119 255.2158 13.84438439 43093
PRAETORIAN SDA_616      
1 65579U 25203Q   26199.88174127  .00000108  00000+0  87748-4 0  9995
2 65579  81.3082 341.7783 0006665 113.5937 246.5919 13.83270052 43061
PRAETORIAN SDA_617      
1 65580U 25203R   26199.90604902  .00000058  00000+0  41823-4 0  9997
2 65580  81.3055 341.5840 0008514 104.8888 255.3212 13.83152501 43071
PRAETORIAN SDA_618      
1 65581U 25203S   26199.85165741  .00000169  00000+0  14043-3 0  9991
2 65581  81.3042 341.1498 0011029 109.0947 251.1405 13.84225824 43091
PRAETORIAN SDA_619      
1 65582U 25203T   26199.90017527  .00000134  00000+0  11054-3 0  9997
2 65582  81.3065 341.4379 0009351 105.5139 254.7051 13.83804896 43713
PRAETORIAN SDA_620      
1 65583U 25203U   26199.86454072  .00000076  00000+0  58071-4 0  9999
2 65583  81.3048 341.5068 0008631 102.3917 257.8206 13.83207790 43075
PRAETORIAN SDA_621      
1 65584U 25203V   26199.90201749  .00000063  00000+0  46056-4 0  9992
2 65584  81.3038 341.3674 0008512 100.1178 260.0939 13.83804218 43087
PRAETORIAN SDA_601      
1 65585U 25203W   26199.88716714  .00000159  00000+0  13420-3 0  9997
2 65585  81.3064 341.7135 0006683 116.3352 243.8491 13.83170987 43062
VICTUS HAZE PUMA        
1 69646U 26142A   26198.28484869  .00002209  00000+0  10157-3 0  9990
2 69646  97.4460  95.5636 0026410 259.4735 100.3525 15.21130484  4240
